STARLINK-5192           
1 54074U 22136Z   26078.98508108 -.00000170  00000+0  73844-5 0  9995
2 54074  53.2177 297.5210 0001390  86.2689 273.8462 15.08836223188406
STARLINK-5212           
1 54075U 22136AA  26079.31489369  .00000618  00000+0  56913-4 0  9994
2 54075  53.2175 291.0409 0001366  86.6335 273.4813 15.08841348188522
STARLINK-5201           
1 54076U 22136AB  26079.30626650  .00000440  00000+0  45711-4 0  9997
2 54076  53.2177 296.6641 0001389  87.9474 272.1677 15.08834413188447
STARLINK-5171           
1 54077U 22136AC  26079.85877326  .00000408  00000+0  43734-4 0  9993
2 54077  53.2167 269.6170 0001365  88.4565 271.6583 15.08839628188875
STARLINK-5175           
1 54079U 22136AE  26079.96862644 -.00000315  00000+0 -16781-5 0  9996
2 54079  53.2169 283.7152 0001475  92.3404 267.7757 15.08838919188684
STARLINK-5160           
1 54080U 22136AF  26079.89641773 -.00001242  00000+0 -59953-4 0  9995
2 54080  53.2174 288.9769 0001381  89.6894 270.4257 15.08825252188605
STARLINK-5210           
1 54082U 22136AH  26079.96494729  .00000767  00000+0  66243-4 0  9991
2 54082  53.2170 283.6900 0001244  98.9696 261.1437 15.08844259188686
STARLINK-5178           
1 54083U 22136AJ  26079.95391243 -.00002353  00000+0 -12984-3 0  9995
2 54083  53.2175 283.6230 0001407  86.1167 273.9986 15.08818006188682
STARLINK-5183           
1 54084U 22136AK  26079.82877854  .00001566  00000+0  11645-3 0  9995
2 54084  53.2171 284.2624 0001348  89.4166 270.6981 15.08849375188662
STARLINK-5166           
1 54085U 22136AL  26079.88492313  .00000653  00000+0  59107-4 0  9997
2 54085  53.2176 283.9012 0001571  92.7611 267.3561 15.08838239188670
STARLINK-5211           
1 54086U 22136AM  26079.95343570 -.00000303  00000+0 -95522-6 0  9993
2 54086  53.2175 268.6591 0001285  82.4214 277.6924 15.08835224188891
STARLINK-5184           
1 54087U 22136AN  26078.98599768  .00000960  00000+0  78378-4 0  9993
2 54087  53.2178 287.5395 0001399  89.0668 271.0485 15.08846176188549
STARLINK-5153           
1 54088U 22136AP  26079.82509675  .00000300  00000+0  36919-4 0  9999
2 54088  53.2170 284.2391 0001110  91.8438 268.2681 15.08836989188669
STARLINK-5143           
1 54089U 22136AQ  26079.93546966  .00000272  00000+0  35183-4 0  9996
2 54089  53.2169 283.5141 0001361  96.3183 263.7964 15.08833007188682
STARLINK-5177           
1 54090U 22136AR  26080.27035127 -.00000053  00000+0  14789-4 0  9996
2 54090  53.2187 282.0431 0001437  90.8658 269.2499 15.08838520188735
STARLINK-5221           
1 54091U 22136AS  26079.57847370  .00001105  00000+0  87500-4 0  9998
2 54091  53.2174 284.8359 0001518  99.1444 260.9720 15.08849414188634
STARLINK-5190           
1 54092U 22136AT  26079.36269289  .00040997  00000+0  35484-3 0  9998
2 54092  53.1768 121.7676 0004021  17.1536 342.9617 15.68776400190907
STARLINK-5213           
1 54093U 22136AU  26079.85816892  .00000138  00000+0  26764-4 0  9996
2 54093  53.2170 283.7340 0001423  77.1830 282.9321 15.08839468188673
STARLINK-5193           
1 54095U 22136AW  26080.24823817 -.00000354  00000+0 -41412-5 0  9998
2 54095  53.2167 281.9037 0000955  81.8494 278.2607 15.08842325188739
STARLINK-5188           
1 54096U 22136AX  26079.86185624  .00000206  00000+0  31031-4 0  9991
2 54096  53.2174 283.7560 0001359  87.7398 272.3750 15.08835770188679
STARLINK-5197           
1 54097U 22136AY  26080.20089171 -.00003111  00000+0 -17741-3 0  9993
2 54097  53.2166 257.3737 0001246  93.9802 266.1333 15.08852992189076
STARLINK-5217           
1 54098U 22136AZ  26078.98705574  .00005283  00000+0  34970-3 0  9991
2 54098  53.2162 288.2317 0001472  78.6990 281.4168 15.08850485188530
STARLINK-5198           
1 54099U 22136BA  26079.30982942 -.00000544  00000+0 -16107-4 0  9995
2 54099  53.2166 286.0003 0001450 140.9766 219.1331 15.08842426188595
STARLINK-5185           
1 54100U 22136BB  26079.85448311  .00000047  00000+0  21063-4 0  9998
2 54100  53.2177 283.7112 0001554  90.3576 269.7594 15.08840571188677
STARLINK-5204           
1 54101U 22136BC  26079.92122702  .00001744  00000+0  12767-3 0  9995
2 54101  53.2166 268.4619 0002059  88.3632 271.7596 15.08839429188898
STARLINK-5179           
1 54102U 22136BD  26080.28139948  .00001260  00000+0  97214-4 0  9991
2 54102  53.2173 282.1019 0001267  83.3958 276.7178 15.08849255188732
STARLINK-5200           
1 54103U 22136BE  26079.92257264  .00000278  00000+0  35553-4 0  9999
2 54103  53.2168 263.4801 0001452  84.2775 275.8382 15.08835918188964
STARLINK-5203           
1 54104U 22136BF  26080.16495947 -.00000374  00000+0 -54510-5 0  9994
2 54104  53.2159 247.1660 0001060  84.9575 275.1538 15.08832013189215
COSMOS 2561             
1 54109U 22137A   26079.87781043  .00014185  00000+0  25980-3 0  9991
2 54109  96.9297 142.2645 0009311   0.7105 359.4159 15.49372079192661
