OBJECT_NAME,OBJECT_ID,EPOCH,MEAN_MOTION,ECCENTRICITY,INCLINATION,RA_OF_ASC_NODE,ARG_OF_PERICENTER,MEAN_ANOMALY,NORAD_CAT_ID,ELEMENT_SET_NO,REV_AT_EPOCH,BSTAR,MEAN_MOTION_DOT,MEAN_MOTION_DDOT
STARLINK-5192,2022-136Z,2026-03-19T23:38:31.005312,15.08836223,0.00013904,53.2177,297.521,86.2689,273.8462,54074.0,999.0,18840.0,7.38438e-06,-1.7e-06,0.0
STARLINK-5212,2022-136AA,2026-03-20T07:33:26.814816,15.08841348,0.00013662,53.2175,291.0409,86.6335,273.4813,54075.0,999.0,18852.0,5.691259e-05,6.18e-06,0.0
STARLINK-5201,2022-136AB,2026-03-20T07:21:01.425600,15.08834413,0.0001389,53.2177,296.6641,87.9474,272.1677,54076.0,999.0,18844.0,4.5711e-05,4.4e-06,0.0
STARLINK-5171,2022-136AC,2026-03-20T20:36:38.009664,15.08839628,0.00013657,53.2167,269.617,88.4565,271.6583,54077.0,999.0,18887.0,4.3733669e-05,4.08e-06,0.0
STARLINK-5175,2022-136AE,2026-03-20T23:14:49.324416,15.08838919,0.00014751,53.2169,283.7152,92.3404,267.7757,54079.0,999.0,18868.0,-1.678073e-06,-3.15e-06,0.0
STARLINK-5160,2022-136AF,2026-03-20T21:30:50.491872,15.08825252,0.00013818,53.2174,288.9769,89.6894,270.4257,54080.0,999.0,18860.0,-5.9952865e-05,-1.242e-05,0.0
STARLINK-5210,2022-136AH,2026-03-20T23:09:31.445856,15.08844259,0.00012446,53.217,283.69,98.9696,261.1437,54082.0,999.0,18868.0,6.6243398e-05,7.67e-06,0.0
STARLINK-5178,2022-136AJ,2026-03-20T22:53:38.033952,15.08818006,0.00014078,53.2175,283.623,86.1167,273.9986,54083.0,999.0,18868.0,-0.0001298442,-2.353e-05,0.0
STARLINK-5183,2022-136AK,2026-03-20T19:53:26.465856,15.08849375,0.00013485,53.2171,284.2624,89.4166,270.6981,54084.0,999.0,18866.0,0.00011645424,1.566e-05,0.0
STARLINK-5166,2022-136AL,2026-03-20T21:14:17.358432,15.08838239,0.00015713,53.2176,283.9012,92.7611,267.3561,54085.0,999.0,18867.0,5.9106916e-05,6.53e-06,0.0
STARLINK-5211,2022-136AM,2026-03-20T22:52:56.844480,15.08835224,0.00012855,53.2175,268.6591,82.4214,277.6924,54086.0,999.0,18889.0,-9.55225e-07,-3.03e-06,0.0
STARLINK-5184,2022-136AN,2026-03-19T23:39:50.199552,15.08846176,0.00013998,53.2178,287.5395,89.0668,271.0485,54087.0,999.0,18854.0,7.8378335e-05,9.6e-06,0.0
STARLINK-5153,2022-136AP,2026-03-20T19:48:08.359200,15.08836989,0.00011109,53.217,284.2391,91.8438,268.2681,54088.0,999.0,18866.0,3.6918885e-05,3e-06,0.0
STARLINK-5143,2022-136AQ,2026-03-20T22:27:04.578624,15.08833007,0.00013616,53.2169,283.5141,96.3183,263.7964,54089.0,999.0,18868.0,3.5182632e-05,2.72e-06,0.0
STARLINK-5177,2022-136AR,2026-03-21T06:29:18.349728,15.0883852,0.00014379,53.2187,282.0431,90.8658,269.2499,54090.0,999.0,18873.0,1.478913e-05,-5.3e-07,0.0
STARLINK-5221,2022-136AS,2026-03-20T13:53:00.127680,15.08849414,0.0001518,53.2174,284.8359,99.1444,260.972,54091.0,999.0,18863.0,8.75e-05,1.105e-05,0.0
STARLINK-5190,2022-136AT,2026-03-20T08:42:16.665696,15.687764,0.00040215,53.1768,121.7676,17.1536,342.9617,54092.0,999.0,19090.0,0.00035484421,0.00040997,0.0
STARLINK-5213,2022-136AU,2026-03-20T20:35:45.794688,15.08839468,0.00014237,53.217,283.734,77.183,282.9321,54093.0,999.0,18867.0,2.6764315e-05,1.38e-06,0.0
STARLINK-5193,2022-136AW,2026-03-21T05:57:27.777888,15.08842325,9.554e-05,53.2167,281.9037,81.8494,278.2607,54095.0,999.0,18873.0,-4.141229e-06,-3.54e-06,0.0
STARLINK-5188,2022-136AX,2026-03-20T20:41:04.379136,15.0883577,0.00013597,53.2174,283.756,87.7398,272.375,54096.0,999.0,18867.0,3.1030988e-05,2.06e-06,0.0
STARLINK-5197,2022-136AY,2026-03-21T04:49:17.043744,15.08852992,0.00012468,53.2166,257.3737,93.9802,266.1333,54097.0,999.0,18907.0,-0.00017740984,-3.111e-05,0.0
STARLINK-5217,2022-136AZ,2026-03-19T23:41:21.615936,15.08850485,0.00014724,53.2162,288.2317,78.699,281.4168,54098.0,999.0,18853.0,0.00034970136,5.283e-05,0.0
STARLINK-5198,2022-136BA,2026-03-20T07:26:09.261888,15.08842426,0.00014509,53.2166,286.0003,140.9766,219.1331,54099.0,999.0,18859.0,-1.6106568e-05,-5.44e-06,0.0
STARLINK-5185,2022-136BB,2026-03-20T20:30:27.340704,15.08840571,0.00015546,53.2177,283.7112,90.3576,269.7594,54100.0,999.0,18867.0,2.106348e-05,4.7e-07,0.0
STARLINK-5204,2022-136BC,2026-03-20T22:06:34.014528,15.08839429,0.00020594,53.2166,268.4619,88.3632,271.7596,54101.0,999.0,18889.0,0.00012767451,1.744e-05,0.0
STARLINK-5179,2022-136BD,2026-03-21T06:45:12.915072,15.08849255,0.0001267,53.2173,282.1019,83.3958,276.7178,54102.0,999.0,18873.0,9.7213556e-05,1.26e-05,0.0
STARLINK-5200,2022-136BE,2026-03-20T22:08:30.276096,15.08835918,0.00014529,53.2168,263.4801,84.2775,275.8382,54103.0,999.0,18896.0,3.5552669e-05,2.78e-06,0.0
STARLINK-5203,2022-136BF,2026-03-21T03:57:32.498208,15.08832013,0.00010604,53.2159,247.166,84.9575,275.1538,54104.0,999.0,18921.0,-5.450996e-06,-3.74e-06,0.0
COSMOS 2561,2022-137A,2026-03-20T21:04:02.821152,15.49372079,0.0009311,96.9297,142.2645,0.7105,359.4159,54109.0,999.0,19266.0,0.0002598,0.00014185,0.0
